IRIDIUM 112             
1 41925U 17003J   25353.96798632  .00000062  00000+0  15244-4 0  9997
2 41925  86.3985 163.1945 0001850  89.5036 270.6371 14.34218053467583
IRIDIUM 111             
1 41926U 17003K   25354.02507157  .00000042  00000+0  79189-5 0  9993
2 41926  86.3986 163.2372 0002007  94.2563 265.8862 14.34217987467578
IRIDIUM 113             
1 42803U 17039A   25354.14457334  .00000070  00000+0  17900-4 0  9994
2 42803  86.3965  36.9998 0001987  94.6480 265.4943 14.34218147445524
IRIDIUM 123             
1 42804U 17039B   25354.18605301  .00000224  00000+0  72812-4 0  9992
2 42804  86.3962  68.4667 0002206 104.3638 255.7803 14.34218741444294
IRIDIUM 120             
1 42805U 17039C   25354.13823149  .00000123  00000+0  36800-4 0  9995
2 42805  86.3956  36.8083 0002513  94.3791 265.7692 14.34218525445511
IRIDIUM 115             
1 42806U 17039D   25354.10635590  .00000286  00000+0  79110-4 0  9995
2 42806  86.4492  36.9257 0002648 103.1297 257.0199 14.43279019448436
IRIDIUM 118             
1 42807U 17039E   25354.14799825  .00000222  00000+0  72098-4 0  9990
2 42807  86.3963  68.4814 0002000  97.4354 262.7069 14.34217207444288
IRIDIUM 117             
1 42808U 17039F   25354.16702440  .00000222  00000+0  72156-4 0  9995
2 42808  86.3957  68.4328 0002115 101.5901 258.5532 14.34216979444311
